{
  "links" : {
    "next" : "https://api.nasa.gov/neo/rest/v1/feed?start_date=2007-09-16&end_date=2007-09-16&detailed=true&api_key=t0TVs3DtDT2H8Oy2Zy8m2eVrNsAVKAexjcZXUckd",
    "prev" : "https://api.nasa.gov/neo/rest/v1/feed?start_date=2007-09-14&end_date=2007-09-14&detailed=true&api_key=t0TVs3DtDT2H8Oy2Zy8m2eVrNsAVKAexjcZXUckd",
    "self" : "https://api.nasa.gov/neo/rest/v1/feed?start_date=2007-09-15&end_date=2007-09-15&detailed=true&api_key=t0TVs3DtDT2H8Oy2Zy8m2eVrNsAVKAexjcZXUckd"
  },
  "element_count" : 7,
  "near_earth_objects" : {
    "2007-09-15" : [ {
      "links" : {
        "self" : "https://api.nasa.gov/neo/rest/v1/neo/3602740?api_key=t0TVs3DtDT2H8Oy2Zy8m2eVrNsAVKAexjcZXUckd"
      },
      "neo_reference_id" : "3602740",
      "name" : "(2012 HO2)",
      "nasa_jpl_url" : "http://ssd.jpl.nasa.gov/sbdb.cgi?sstr=3602740",
      "absolute_magnitude_h" : 20.4,
      "estimated_diameter" : {
        "kilometers" : {
          "estimated_diameter_min" : 0.2210828104,
          "estimated_diameter_max" : 0.4943561926
        },
        "meters" : {
          "estimated_diameter_min" : 221.0828103591,
          "estimated_diameter_max" : 494.3561926196
        },
        "miles" : {
          "estimated_diameter_min" : 0.137374447,
          "estimated_diameter_max" : 0.3071786018
        },
        "feet" : {
          "estimated_diameter_min" : 725.3373275385,
          "estimated_diameter_max" : 1621.9035709942
        }
      },
      "is_potentially_hazardous_asteroid" : false,
      "close_approach_data" : [ {
        "close_approach_date" : "2007-09-15",
        "epoch_date_close_approach" : 1189839600000,
        "relative_velocity" : {
          "kilometers_per_second" : "25.019982936",
          "kilometers_per_hour" : "90071.9385696133",
          "miles_per_hour" : "55967.1998295467"
        },
        "miss_distance" : {
          "astronomical" : "0.4094485591",
          "lunar" : "159.2754974365",
          "kilometers" : "61252632",
          "miles" : "38060624"
        },
        "orbiting_body" : "Earth"
      } ],
      "orbital_data" : {
        "orbit_id" : "14",
        "orbit_determination_date" : "2017-04-06 08:50:02",
        "orbit_uncertainty" : "1",
        "minimum_orbit_intersection" : ".15888",
        "jupiter_tisserand_invariant" : "5.017",
        "epoch_osculation" : "2458000.5",
        "eccentricity" : ".394679281613382",
        "semi_major_axis" : "1.234498247487183",
        "inclination" : "26.35251175452719",
        "ascending_node_longitude" : "211.6872065770002",
        "orbital_period" : "500.9958673876358",
        "perihelion_distance" : ".7472673660159624",
        "perihelion_argument" : "226.1755107855667",
        "aphelion_distance" : "1.721729128958403",
        "perihelion_time" : "2457906.560979152735",
        "mean_anomaly" : "67.5016496270801",
        "mean_motion" : ".7185688015295684",
        "equinox" : "J2000"
      }
    }, {
      "links" : {
        "self" : "https://api.nasa.gov/neo/rest/v1/neo/3752572?api_key=t0TVs3DtDT2H8Oy2Zy8m2eVrNsAVKAexjcZXUckd"
      },
      "neo_reference_id" : "3752572",
      "name" : "(2016 JA)",
      "nasa_jpl_url" : "http://ssd.jpl.nasa.gov/sbdb.cgi?sstr=3752572",
      "absolute_magnitude_h" : 27.6,
      "estimated_diameter" : {
        "kilometers" : {
          "estimated_diameter_min" : 0.0080270317,
          "estimated_diameter_max" : 0.0179489885
        },
        "meters" : {
          "estimated_diameter_min" : 8.0270316728,
          "estimated_diameter_max" : 17.948988478
        },
        "miles" : {
          "estimated_diameter_min" : 0.0049877647,
          "estimated_diameter_max" : 0.0111529809
        },
        "feet" : {
          "estimated_diameter_min" : 26.3354065935,
          "estimated_diameter_max" : 58.8877593581
        }
      },
      "is_potentially_hazardous_asteroid" : false,
      "close_approach_data" : [ {
        "close_approach_date" : "2007-09-15",
        "epoch_date_close_approach" : 1189839600000,
        "relative_velocity" : {
          "kilometers_per_second" : "20.3729218083",
          "kilometers_per_hour" : "73342.5185098825",
          "miles_per_hour" : "45572.1887929878"
        },
        "miss_distance" : {
          "astronomical" : "0.4274770766",
          "lunar" : "166.2885742188",
          "kilometers" : "63949660",
          "miles" : "39736476"
        },
        "orbiting_body" : "Earth"
      } ],
      "orbital_data" : {
        "orbit_id" : "14",
        "orbit_determination_date" : "2017-04-06 08:26:15",
        "orbit_uncertainty" : "6",
        "minimum_orbit_intersection" : ".000161065",
        "jupiter_tisserand_invariant" : "5.986",
        "epoch_osculation" : "2458000.5",
        "eccentricity" : ".2684533498766837",
        "semi_major_axis" : "1.013233882976369",
        "inclination" : ".05793004780996782",
        "ascending_node_longitude" : "358.4071079044793",
        "orbital_period" : "372.5314848153116",
        "perihelion_distance" : ".7412278528828034",
        "perihelion_argument" : "112.5873060304606",
        "aphelion_distance" : "1.285239913069935",
        "perihelion_time" : "2458172.201602034438",
        "mean_anomaly" : "194.0742212351732",
        "mean_motion" : ".9663612732719108",
        "equinox" : "J2000"
      }
    }, {
      "links" : {
        "self" : "https://api.nasa.gov/neo/rest/v1/neo/3767164?api_key=t0TVs3DtDT2H8Oy2Zy8m2eVrNsAVKAexjcZXUckd"
      },
      "neo_reference_id" : "3767164",
      "name" : "(2017 BO30)",
      "nasa_jpl_url" : "http://ssd.jpl.nasa.gov/sbdb.cgi?sstr=3767164",
      "absolute_magnitude_h" : 23.9,
      "estimated_diameter" : {
        "kilometers" : {
          "estimated_diameter_min" : 0.04411182,
          "estimated_diameter_max" : 0.0986370281
        },
        "meters" : {
          "estimated_diameter_min" : 44.1118199997,
          "estimated_diameter_max" : 98.6370281305
        },
        "miles" : {
          "estimated_diameter_min" : 0.0274098057,
          "estimated_diameter_max" : 0.0612901888
        },
        "feet" : {
          "estimated_diameter_min" : 144.7238235278,
          "estimated_diameter_max" : 323.6123073718
        }
      },
      "is_potentially_hazardous_asteroid" : false,
      "close_approach_data" : [ {
        "close_approach_date" : "2007-09-15",
        "epoch_date_close_approach" : 1189839600000,
        "relative_velocity" : {
          "kilometers_per_second" : "16.7130526612",
          "kilometers_per_hour" : "60166.9895804989",
          "miles_per_hour" : "37385.4274979495"
        },
        "miss_distance" : {
          "astronomical" : "0.3627198939",
          "lunar" : "141.0980377197",
          "kilometers" : "54262124",
          "miles" : "33716920"
        },
        "orbiting_body" : "Earth"
      } ],
      "orbital_data" : {
        "orbit_id" : "4",
        "orbit_determination_date" : "2017-04-06 08:20:40",
        "orbit_uncertainty" : "7",
        "minimum_orbit_intersection" : ".121723",
        "jupiter_tisserand_invariant" : "6.355",
        "epoch_osculation" : "2458000.5",
        "eccentricity" : ".2313072225283381",
        "semi_major_axis" : ".9273843969474576",
        "inclination" : "25.06006382201148",
        "ascending_node_longitude" : "124.0992989465857",
        "orbital_period" : "326.2031150082972",
        "perihelion_distance" : ".7128736878734233",
        "perihelion_argument" : "155.5030650740299",
        "aphelion_distance" : "1.141895106021492",
        "perihelion_time" : "2457908.211756536292",
        "mean_anomaly" : "101.8499398636643",
        "mean_motion" : "1.103606873867048",
        "equinox" : "J2000"
      }
    } ]
  }
}